INTELSAT 11 (IS-11) [PM]
1 32253C 07044B   22363.28159722 -.00000178  00000-0  00000-0 0  3634
2 32253   0.2833  94.0949 0003466 200.6465 221.3303  1.00272168    12
HORIZONS-2              
1 32388C 07063B   22360.00000000 -.00003705  00000-0  00000-0 0  3601
2 32388   0.0076 324.7067 0001956 330.7149  85.2577  1.00269055    19
HORIZONS-2              
1 32388C 07063B   22363.00000000 -.00000158  00000-0  00000-0 0  3636
2 32388   0.0029 341.1130 0002249 304.8641  97.6462  1.00272747    18
HORIZONS-2          [PM]
1 32388C 07063B   23002.19784722 -.00000163  00000-0  00000-0 0    23
2 32388   0.0183 310.0656 0002595 350.1761 158.7509  1.00271790    16
GALAXY 18 (G-18)        
1 32951C 08024A   22360.00000000  .00000115  00000-0  00000-0 0  3606
2 32951   0.0236  85.0699 0002686 187.9947  58.4066  1.00270009    16
GALAXY 18 (G-18)        
1 32951C 08024A   22363.00000000  .00000116  00000-0  00000-0 0  3633
2 32951   0.0118 310.4218 0003046 324.7970  59.2027  1.00271241    10
GALAXY 18 (G-18)    [PM]
1 32951C 08024A   22365.55555556  .00000054  00000-0  00000-0 0  3659
2 32951   0.0028 350.5682 0003252 288.7219 257.6538  1.00270693    15
INTELSAT 25 (IS-25)     
1 33153C 08034A   22360.00000000 -.00000128  00000-0  00000-0 0  3607
2 33153   0.0001   6.7837 0002639 266.2228 149.9766  1.00271035    19
INTELSAT 25 (IS-25)     
1 33153C 08034A   22363.00000000 -.00000128  00000-0  00000-0 0  3633
2 33153   0.0096 326.0447 0002994 310.3209 149.5671  1.00271170    13
INTELSAT 25 (IS-25) [PM]
1 33153C 08034A   22365.86336806 -.00000134  00000-0  00000-0 0  3654
2 33153   0.0312 266.1797 0003277 322.1015 151.2820  1.00271929    15
GALAXY 19 (G-19)        
1 33376C 08045A   22360.00000000 -.00003039  00000-0  00000-0 0  3600
2 33376   0.0004  40.5607 0002489 231.6228  85.2965  1.00270089    10
GALAXY 19 (G-19)    [PM]
1 33376C 08045A   22362.00692130 -.00000075  00000-0  00000-0 0  3622
2 33376   0.0036 333.5508 0002715 298.8132  89.5723  1.00271234    13
GALAXY 19 (G-19)        
1 33376C 08045A   22363.00000000 -.00000033  00000-0  00000-0 0  3637
2 33376   0.0016 344.3062 0002832 290.0976  86.0191  1.00271367    14
INTELSAT 14 (IS-14)     
1 36097C 09064A   22360.00000000 -.00000183  00000-0  00000-0 0  3602
2 36097   0.0030 307.1591 0002141 324.9501 137.3523  1.00272725    19
INTELSAT 14 (IS-14)     
1 36097C 09064A   22363.00000000 -.00000182  00000-0  00000-0 0  3637
2 36097   0.0050  48.4051 0002529 227.7258 136.2945  1.00272086    12
INTELSAT 14 (IS-14) [PM]
1 36097C 09064A   23002.60850694 -.00000183  00000-0  00000-0 0    27
2 36097   0.0166 316.5438 0002790 330.0787 349.4070  1.00271228    17
INTELSAT 15 (IS-15)     
1 36106C 09067A   22360.00000000 -.00000092  00000-0  00000-0 0  3605
2 36106   0.0192  53.6790 0001989 219.4646 266.4875  1.00269761    10
INTELSAT 15 (IS-15)     
1 36106C 09067A   22363.00000000 -.00000095  00000-0  00000-0 0  3634
2 36106   0.0167 332.2387 0002371 306.0282 264.3094  1.00270584    10
INTELSAT 15 (IS-15) [PM]
1 36106C 09067A   23004.49206019 -.00000095  00000-0  00000-0 0    40
2 36106   0.0140  27.7460 0002640 258.7183  79.6483  1.00272498    16
INTELSAT 16 (IS-16)     
1 36397C 10006A   22360.00000000 -.00000155  00000-0  00000-0 0  3602
2 36397   0.0177  56.1645 0001788 210.3599 111.7569  1.00270002    18
INTELSAT 16 (IS-16)     
1 36397C 10006A   22363.00000000 -.00000155  00000-0  00000-0 0  3638
2 36397   0.0163 326.2467 0002108 301.2393 113.7244  1.00268649    11
INTELSAT 16 (IS-16) [PM]
1 36397C 10006A   23004.81554398 -.00000154  00000-0  00000-0 0    45
2 36397   0.0114  30.7490 0002509 252.2761  38.5095  1.00272757    12
INTELSAT 17 (IS-17)     
1 37238C 10065B   22360.00000000  .00000091  00000-0  00000-0 0  3600
2 37238   0.0484 230.0317 0002366  52.1243 238.3225  1.00270026    15
INTELSAT 17 (IS-17)     
1 37238C 10065B   22363.00000000  .00000084  00000-0  00000-0 0  3638
2 37238   0.0398 225.7375 0002693  59.3770 238.3078  1.00270816    14
INTELSAT 17 (IS-17) [PM]
1 37238C 10065B   23001.80090278  .00000089  00000-0  00000-0 0    16
2 37238   0.0471 254.4153 0003015  36.9199 164.1578  1.00272679    14
INTELSAT NEW DAWN       
1 37392C 11016A   22360.00000000  .00000245  00000-0  00000-0 0  3609
2 37392   0.0078  93.2700 0000316 122.2253 271.8148  1.00268529    14
INTELSAT NEW DAWN       
1 37392C 11016A   22363.00000000  .00000244  00000-0  00000-0 0  3634
2 37392   0.0269 148.0072 0000517 114.9477 227.2924  1.00270786    11
INTELSAT NEW DAWN   [PM]
1 37392C 11016A   23001.99027778 -.00002916  00000-0  00000-0 0    11
2 37392   0.0000 319.9555 0001373 237.2334 293.4785  1.00268190    17
INTELSAT 18 (IS-18)     
1 37834C 11056A   22360.00000000  .00000143  00000-0  00000-0 0  3601
2 37834   0.0168 359.9189 0001580 272.2971   2.2573  1.00269928    17
INTELSAT 18 (IS-18)     
1 37834C 11056A   22363.00000000  .00000143  00000-0  00000-0 0  3637
2 37834   0.0176  12.9963 0001905 261.5076   2.9194  1.00270045    18
INTELSAT 18 (IS-18) [PM]
1 37834C 11056A   23001.49738426  .00000143  00000-0  00000-0 0    19
2 37834   0.0220 352.5070 0002201 291.4827 175.9332  1.00272196    10
INTELSAT 22 (IS-22)     
1 38098C 12011A   22360.00000000  .00000031  00000-0  00000-0 0  3602
2 38098   0.0281  89.8592 0002259 172.0066 264.7225  1.00271316    12
INTELSAT 22 (IS-22)     
1 38098C 12011A   22363.00000000 -.00000031  00000-0  00000-0 0  3639
2 38098   0.0031 334.0362 0002628 288.7864 266.6909  1.00271658    15
INTELSAT 22 (IS-22) [PM]
1 38098C 12011A   22365.46559028 -.00000002  00000-0  00000-0 0  3650
2 38098   0.0004  10.9778 0002809 258.1390  70.4425  1.00271328    10
INTELSAT 19 (IS-19)     
1 38356C 12030A   22360.00000000  .00000033  00000-0  00000-0 0  3602
2 38356   0.0107  57.7347 0002908 220.5014 342.2437  1.00269408    17
INTELSAT 19 (IS-19)     
1 38356C 12030A   22363.00000000  .00000034  00000-0  00000-0 0  3639
2 38356   0.0017  10.7457 0003265 270.3889 342.2899  1.00270545    14
INTELSAT 19 (IS-19) [PM]
1 38356C 12030A   22365.18472222  .00000033  00000-0  00000-0 0  3650
2 38356   0.0240 106.0224 0003479 245.0414 341.0121  1.00271530    13
INTELSAT 20 (IS-20)     
1 38740C 12043A   22359.91434028  .00000071  00000-0  00000-0 0  3592
2 38740   0.0281 119.7225 0003250  74.2120 298.1227  1.00268690    12
INTELSAT 20 (IS-20)     
1 38740C 12043A   22362.91435185  .00000067  00000-0  00000-0 0  3620
2 38740   0.0262 124.2690 0003316  75.6786 295.0525  1.00269629    14
INTELSAT 20 (IS-20) [PM]
1 38740C 12043A   22363.33127315 -.00002466  00000-0  00000-0 0  3637
2 38740   0.0012 154.1496 0003186 167.0251 324.3247  1.00272114    11
INTELSAT 21 (IS-21)     
1 38749C 12045A   22360.00000000 -.00000195  00000-0  00000-0 0  3604
2 38749   0.0022  27.2624 0001530 244.5300 124.6894  1.00270338    16
INTELSAT 21 (IS-21)     
1 38749C 12045A   22363.00000000 -.00000195  00000-0  00000-0 0  3630
2 38749   0.0077  48.2896 0002100 224.7021 126.4376  1.00272681    12
INTELSAT 21 (IS-21) [PM]
1 38749C 12045A   23002.64318287 -.00000195  00000-0  00000-0 0    20
2 38749   0.0167 321.7923 0002453 317.7550 356.0127  1.00269697    11
INTELSAT 23 (IS-23)     
1 38867C 12057A   22360.00000000 -.00000195  00000-0  00000-0 0  3608
2 38867   0.0247  90.8157 0001448 253.8682  56.7955  1.00268918    11
INTELSAT 23 (IS-23)     
1 38867C 12057A   22363.00000000 -.00000195  00000-0  00000-0 0  3634
2 38867   0.0208  88.2832 0001566 240.0814  76.0621  1.00271157    19
INTELSAT 23 (IS-23) [PM]
1 38867C 12057A   22365.37251157 -.00000197  00000-0  00000-0 0  3651
2 38867   0.0081  56.6412 0001387 261.0325 223.1890  1.00274311    10
INTELSAT 30 (IS-30)     
1 40271C 14062A   22359.91434028 -.00000055  00000-0  00000-0 0  3590
2 40271   0.0001  27.8966 0002675  83.4544 217.1597  1.00269154    14
INTELSAT 30 (IS-30) [PM]
1 40271C 14062A   22362.35414352 -.00000059  00000-0  00000-0 0  3628
2 40271   0.0419 186.3167 0002333  57.4032 245.5085  1.00271991    14
INTELSAT 30 (IS-30)     
1 40271C 14062A   22362.91435185 -.00000132  00000-0  00000-0 0  3629
2 40271   0.0000   7.7643 0002290 104.6236 219.0694  1.00270092    11
INTELSAT 34 (IS-34)     
1 40874C 15039A   22359.91434028 -.00000189  00000-0  00000-0 0  3592
2 40874   0.0000   2.2320 0000867 163.9530 201.8881  1.00269289    18
INTELSAT 34 (IS-34) [PM]
1 40874C 15039A   22362.40449074 -.00003390  00000-0  00000-0 0  3628
2 40874   0.0417 187.7069 0000609 146.1681 213.0935  1.00272154    13
INTELSAT 34 (IS-34)     
1 40874C 15039A   22362.91435185 -.00000221  00000-0  00000-0 0  3622
2 40874   0.0010 354.0356 0000543 197.5636 179.4268  1.00270284    13
INTELSAT 31 (IS-31)     
1 41581C 16035A   22359.91434028 -.00000075  00000-0  00000-0 0  3599
2 41581   0.0348 237.2957 0002272 315.6281 135.5875  1.00269432    12
INTELSAT 31 (IS-31)     
1 41581C 16035A   22362.91435185 -.00000064  00000-0  00000-0 0  3620
2 41581   0.0350 221.4813 0002542 338.0461 131.9343  1.00269458    18
INTELSAT 31 (IS-31) [PM]
1 41581C 16035A   22363.35339120 -.00000043  00000-0  00000-0 0  3639
2 41581   0.0275 137.7538 0002439 193.5953 158.5934  1.00272173    11
INTELSAT 36 (IS-36)     
1 41747C 16053A   22359.91434028  .00000065  00000-0  00000-0 0  3591
2 41747   0.0072  10.2930 0000837  18.5356 103.2329  1.00269347    18
INTELSAT 36 (IS-36)     
1 41747C 16053A   22362.91435185  .00000066  00000-0  00000-0 0  3625
2 41747   0.0090  18.7099 0000698 347.1285 129.1711  1.00270513    13
INTELSAT 36 (IS-36) [PM]
1 41747C 16053A   22363.32025463  .00000066  00000-0  00000-0 0  3636
2 41747   0.0435 157.0292 0000857 314.8144 169.6921  1.00271874    13
INTELSAT 33E            
1 41748C 16053B   22360.00000000  .00000209  00000-0  00000-0 0  3605
2 41748   0.0094 333.0721 0001574 287.2954 254.1083  1.00271768    18
